[{"OBJECT_NAME":"JILIN-1 08","OBJECT_ID":"2018-008F","EPOCH":"2026-03-09T22:37:53.184288","MEAN_MOTION":15.32205976,"ECCENTRICITY":0.00081321,"INCLINATION":97.1902,"RA_OF_ASC_NODE":90.9961,"ARG_OF_PERICENTER":76.0646,"MEAN_ANOMALY":284.15,"EPHEMERIS_TYPE":0,"CLASSIFICATION_TYPE":"U","NORAD_CAT_ID":43160,"ELEMENT_SET_NO":999,"REV_AT_EPOCH":44974,"BSTAR":0.00036689195,"MEAN_MOTION_DOT":0.00011349,"MEAN_MOTION_DDOT":0},{"OBJECT_NAME":"STARLINK-31031","OBJECT_ID":"2024-002G","EPOCH":"2026-03-09T18:07:51.563424","MEAN_MOTION":15.30199192,"ECCENTRICITY":8.669e-5,"INCLINATION":53.1592,"RA_OF_ASC_NODE":229.7606,"ARG_OF_PERICENTER":72.8998,"MEAN_ANOMALY":287.2098,"EPHEMERIS_TYPE":0,"CLASSIFICATION_TYPE":"U","NORAD_CAT_ID":58711,"ELEMENT_SET_NO":999,"REV_AT_EPOCH":12202,"BSTAR":6.3620048e-5,"MEAN_MOTION_DOT":1.526e-5,"MEAN_MOTION_DDOT":0}]
